CCSDS_OMM_VERS = 2.0
CREATION_DATE  = 
ORIGINATOR     = 

OBJECT_NAME    = COSMOS 2558
OBJECT_ID      = 2022-089A
CENTER_NAME    = EARTH
REF_FRAME      = TEME
TIME_SYSTEM    = UTC
MEAN_ELEMENT_THEORY = SGP/SGP4

EPOCH          = 2022-08-29T21:23:13.624224
MEAN_MOTION    = 15.41472888
ECCENTRICITY   = .0011912
INCLINATION    = 97.2353
RA_OF_ASC_NODE = 339.8052
ARG_OF_PERICENTER = 164.2570
MEAN_ANOMALY   = 195.9050

EPHEMERIS_TYPE = 0
CLASSIFICATION_TYPE = U
NORAD_CAT_ID   = 53323
ELEMENT_SET_NO = 999
REV_AT_EPOCH   = 432
BSTAR          = .29526E-3
MEAN_MOTION_DOT = .12318E-3
MEAN_MOTION_DDOT = 0

CCSDS_OMM_VERS = 2.0
CREATION_DATE  = 
ORIGINATOR     = 

OBJECT_NAME    = SL-4 R/B
OBJECT_ID      = 2022-089B
CENTER_NAME    = EARTH
REF_FRAME      = TEME
TIME_SYSTEM    = UTC
MEAN_ELEMENT_THEORY = SGP/SGP4

EPOCH          = 2022-08-30T05:17:11.848128
MEAN_MOTION    = 15.74552816
ECCENTRICITY   = .0096159
INCLINATION    = 97.2533
RA_OF_ASC_NODE = 341.5838
ARG_OF_PERICENTER = 322.5347
MEAN_ANOMALY   = 36.9239

EPHEMERIS_TYPE = 0
CLASSIFICATION_TYPE = U
NORAD_CAT_ID   = 53324
ELEMENT_SET_NO = 999
REV_AT_EPOCH   = 446
BSTAR          = .25372E-3
MEAN_MOTION_DOT = .48934E-3
MEAN_MOTION_DDOT = .28735E-5

CCSDS_OMM_VERS = 2.0
CREATION_DATE  = 
ORIGINATOR     = 

OBJECT_NAME    = 2022-090A
OBJECT_ID      = 2022-090A
CENTER_NAME    = EARTH
REF_FRAME      = TEME
TIME_SYSTEM    = UTC
MEAN_ELEMENT_THEORY = SGP/SGP4

EPOCH          = 2022-08-29T20:01:42.850272
MEAN_MOTION    = 15.20880985
ECCENTRICITY   = .0007912
INCLINATION    = 97.4716
RA_OF_ASC_NODE = 314.4917
ARG_OF_PERICENTER = 155.6390
MEAN_ANOMALY   = 341.4876

EPHEMERIS_TYPE = 0
CLASSIFICATION_TYPE = U
NORAD_CAT_ID   = 53346
ELEMENT_SET_NO = 999
REV_AT_EPOCH   = 391
BSTAR          = .14106E-5
MEAN_MOTION_DOT = -.38E-6
MEAN_MOTION_DDOT = 0

CCSDS_OMM_VERS = 2.0
CREATION_DATE  = 
ORIGINATOR     = 

OBJECT_NAME    = 2022-090B
OBJECT_ID      = 2022-090B
CENTER_NAME    = EARTH
REF_FRAME      = TEME
TIME_SYSTEM    = UTC
MEAN_ELEMENT_THEORY = SGP/SGP4

EPOCH          = 2022-08-30T06:19:22.656288
MEAN_MOTION    = 15.23769243
ECCENTRICITY   = .001292
INCLINATION    = 97.4706
RA_OF_ASC_NODE = 314.9690
ARG_OF_PERICENTER = 180.6951
MEAN_ANOMALY   = 264.4333

EPHEMERIS_TYPE = 0
CLASSIFICATION_TYPE = U
NORAD_CAT_ID   = 53347
ELEMENT_SET_NO = 999
REV_AT_EPOCH   = 397
BSTAR          = .20473E-3
MEAN_MOTION_DOT = .4863E-4
MEAN_MOTION_DDOT = 0

CCSDS_OMM_VERS = 2.0
CREATION_DATE  = 
ORIGINATOR     = 

OBJECT_NAME    = 2022-090C
OBJECT_ID      = 2022-090C
CENTER_NAME    = EARTH
REF_FRAME      = TEME
TIME_SYSTEM    = UTC
MEAN_ELEMENT_THEORY = SGP/SGP4

EPOCH          = 2022-08-30T06:17:56.187168
MEAN_MOTION    = 15.23899236
ECCENTRICITY   = .0012237
INCLINATION    = 97.4698
RA_OF_ASC_NODE = 314.9672
ARG_OF_PERICENTER = 183.4044
MEAN_ANOMALY   = 262.8846

EPHEMERIS_TYPE = 0
CLASSIFICATION_TYPE = U
NORAD_CAT_ID   = 53348
ELEMENT_SET_NO = 999
REV_AT_EPOCH   = 397
BSTAR          = .28508E-3
MEAN_MOTION_DOT = .6826E-4
MEAN_MOTION_DDOT = 0

CCSDS_OMM_VERS = 2.0
CREATION_DATE  = 
ORIGINATOR     = 

OBJECT_NAME    = CZ-4B R/B
OBJECT_ID      = 2022-090D
CENTER_NAME    = EARTH
REF_FRAME      = TEME
TIME_SYSTEM    = UTC
MEAN_ELEMENT_THEORY = SGP/SGP4

EPOCH          = 2022-08-30T05:13:19.174656
MEAN_MOTION    = 15.61035279
ECCENTRICITY   = .0150469
INCLINATION    = 97.5141
RA_OF_ASC_NODE = 316.5852
ARG_OF_PERICENTER = 293.3266
MEAN_ANOMALY   = 65.2218

EPHEMERIS_TYPE = 0
CLASSIFICATION_TYPE = U
NORAD_CAT_ID   = 53349
ELEMENT_SET_NO = 999
REV_AT_EPOCH   = 407
BSTAR          = .26701E-3
MEAN_MOTION_DOT = .3897E-3
MEAN_MOTION_DDOT = .26801E-5

CCSDS_OMM_VERS = 2.0
CREATION_DATE  = 
ORIGINATOR     = 

OBJECT_NAME    = SBIRS GEO-6 (USA 336)
OBJECT_ID      = 2022-092A
CENTER_NAME    = EARTH
REF_FRAME      = TEME
TIME_SYSTEM    = UTC
MEAN_ELEMENT_THEORY = SGP/SGP4

EPOCH          = 2022-08-30T05:44:34.922976
MEAN_MOTION    = 1.00260514
ECCENTRICITY   = .0002124
INCLINATION    = 6.5563
RA_OF_ASC_NODE = 312.3646
ARG_OF_PERICENTER = 333.8602
MEAN_ANOMALY   = 353.4691

EPHEMERIS_TYPE = 0
CLASSIFICATION_TYPE = U
NORAD_CAT_ID   = 53355
ELEMENT_SET_NO = 999
REV_AT_EPOCH   = 32
BSTAR          = 0
MEAN_MOTION_DOT = .117E-5
MEAN_MOTION_DDOT = 0

CCSDS_OMM_VERS = 2.0
CREATION_DATE  = 
ORIGINATOR     = 

OBJECT_NAME    = ATLAS 5 CENTAUR R/B
OBJECT_ID      = 2022-092B
CENTER_NAME    = EARTH
REF_FRAME      = TEME
TIME_SYSTEM    = UTC
MEAN_ELEMENT_THEORY = SGP/SGP4

EPOCH          = 2022-08-29T17:51:22.461408
MEAN_MOTION    = 1.99524760
ECCENTRICITY   = .565866
INCLINATION    = 16.4266
RA_OF_ASC_NODE = 310.3529
ARG_OF_PERICENTER = 182.2746
MEAN_ANOMALY   = 173.1858

EPHEMERIS_TYPE = 0
CLASSIFICATION_TYPE = U
NORAD_CAT_ID   = 53356
ELEMENT_SET_NO = 999
REV_AT_EPOCH   = 50
BSTAR          = 0
MEAN_MOTION_DOT = -.28E-6
MEAN_MOTION_DDOT = 0

CCSDS_OMM_VERS = 2.0
CREATION_DATE  = 
ORIGINATOR     = 

OBJECT_NAME    = PRC TEST SPACECRAFT2
OBJECT_ID      = 2022-093A
CENTER_NAME    = EARTH
REF_FRAME      = TEME
TIME_SYSTEM    = UTC
MEAN_ELEMENT_THEORY = SGP/SGP4

EPOCH          = 2022-08-30T05:14:48.783552
MEAN_MOTION    = 15.30899964
ECCENTRICITY   = .0177925
INCLINATION    = 49.9941
RA_OF_ASC_NODE = 36.7035
ARG_OF_PERICENTER = 252.4417
MEAN_ANOMALY   = 105.7034

EPHEMERIS_TYPE = 0
CLASSIFICATION_TYPE = U
NORAD_CAT_ID   = 53357
ELEMENT_SET_NO = 999
REV_AT_EPOCH   = 392
BSTAR          = .4962E-4
MEAN_MOTION_DOT = .1958E-4
MEAN_MOTION_DDOT = 0

CCSDS_OMM_VERS = 2.0
CREATION_DATE  = 
ORIGINATOR     = 

OBJECT_NAME    = CZ-2F R/B
OBJECT_ID      = 2022-093B
CENTER_NAME    = EARTH
REF_FRAME      = TEME
TIME_SYSTEM    = UTC
MEAN_ELEMENT_THEORY = SGP/SGP4

EPOCH          = 2022-08-29T13:21:44.769888
MEAN_MOTION    = 15.32648764
ECCENTRICITY   = .0179117
INCLINATION    = 49.9915
RA_OF_ASC_NODE = 39.8954
ARG_OF_PERICENTER = 251.3630
MEAN_ANOMALY   = 106.7806

EPHEMERIS_TYPE = 0
CLASSIFICATION_TYPE = U
NORAD_CAT_ID   = 53358
ELEMENT_SET_NO = 999
REV_AT_EPOCH   = 381
BSTAR          = .15234E-3
MEAN_MOTION_DOT = .7694E-4
MEAN_MOTION_DDOT = 0

CCSDS_OMM_VERS = 2.0
CREATION_DATE  = 
ORIGINATOR     = 

OBJECT_NAME    = CZ-2F DEB
OBJECT_ID      = 2022-093C
CENTER_NAME    = EARTH
REF_FRAME      = TEME
TIME_SYSTEM    = UTC
MEAN_ELEMENT_THEORY = SGP/SGP4

EPOCH          = 2022-08-29T20:02:37.748832
MEAN_MOTION    = 15.25813835
ECCENTRICITY   = .0227908
INCLINATION    = 50.3069
RA_OF_ASC_NODE = 40.6890
ARG_OF_PERICENTER = 267.1274
MEAN_ANOMALY   = 90.3585

EPHEMERIS_TYPE = 0
CLASSIFICATION_TYPE = U
NORAD_CAT_ID   = 53359
ELEMENT_SET_NO = 999
REV_AT_EPOCH   = 384
BSTAR          = .17548E-2
MEAN_MOTION_DOT = .99327E-3
MEAN_MOTION_DDOT = 0

CCSDS_OMM_VERS = 2.0
CREATION_DATE  = 
ORIGINATOR     = 

OBJECT_NAME    = CZ-2F DEB
OBJECT_ID      = 2022-093D
CENTER_NAME    = EARTH
REF_FRAME      = TEME
TIME_SYSTEM    = UTC
MEAN_ELEMENT_THEORY = SGP/SGP4

EPOCH          = 2022-08-29T17:00:13.124736
MEAN_MOTION    = 15.21264964
ECCENTRICITY   = .0239949
INCLINATION    = 50.3312
RA_OF_ASC_NODE = 42.1464
ARG_OF_PERICENTER = 260.2771
MEAN_ANOMALY   = 97.1013

EPHEMERIS_TYPE = 0
CLASSIFICATION_TYPE = U
NORAD_CAT_ID   = 53360
ELEMENT_SET_NO = 999
REV_AT_EPOCH   = 380
BSTAR          = .18154E-2
MEAN_MOTION_DOT = .92861E-3
MEAN_MOTION_DDOT = 0

