COSMOS 2558             
1 53323U 22089A   22241.89112991  .00012318  00000+0  29526-3 0  9999
2 53323  97.2353 339.8052 0011912 164.2570 195.9050 15.41472888  4322
SL-4 R/B                
1 53324U 22089B   22242.22027602  .00048934  28735-5  25372-3 0  9991
2 53324  97.2533 341.5838 0096159 322.5347  36.9239 15.74552816  4466
2022-090A               
1 53346U 22090A   22241.83452373 -.00000038  00000+0  14106-5 0  9998
2 53346  97.4716 314.4917 0007912 155.6390 341.4876 15.20880985  3916
2022-090B               
1 53347U 22090B   22242.26345667  .00004863  00000+0  20473-3 0  9995
2 53347  97.4706 314.9690 0012920 180.6951 264.4333 15.23769243  3979
2022-090C               
1 53348U 22090C   22242.26245587  .00006826  00000+0  28508-3 0  9994
2 53348  97.4698 314.9672 0012237 183.4044 262.8846 15.23899236  3972
CZ-4B R/B               
1 53349U 22090D   22242.21758304  .00038970  26801-5  26701-3 0  9997
2 53349  97.5141 316.5852 0150469 293.3266  65.2218 15.61035279  4073
SBIRS GEO-6 (USA 336)   
1 53355U 22092A   22242.23929309  .00000117  00000+0  00000+0 0  9992
2 53355   6.5563 312.3646 0002124 333.8602 353.4691  1.00260514   322
ATLAS 5 CENTAUR R/B     
1 53356U 22092B   22241.74400997 -.00000028  00000+0  00000+0 0  9997
2 53356  16.4266 310.3529 5658660 182.2746 173.1858  1.99524760   509
PRC TEST SPACECRAFT2    
1 53357U 22093A   22242.21862018  .00001958  00000+0  49620-4 0  9996
2 53357  49.9941  36.7035 0177925 252.4417 105.7034 15.30899964  3929
CZ-2F R/B               
1 53358U 22093B   22241.55676817  .00007694  00000+0  15234-3 0  9999
2 53358  49.9915  39.8954 0179117 251.3630 106.7806 15.32648764  3813
CZ-2F DEB               
1 53359U 22093C   22241.83515913  .00099327  00000+0  17548-2 0  9993
2 53359  50.3069  40.6890 0227908 267.1274  90.3585 15.25813835  3840
CZ-2F DEB               
1 53360U 22093D   22241.70848524  .00092861  00000+0  18154-2 0  9998
2 53360  50.3312  42.1464 0239949 260.2771  97.1013 15.21264964  3807
